[{"OBJECT_NAME":"STARLINK-4466","OBJECT_ID":"2022-105J","EPOCH":"2026-03-09T15:02:06.192384","MEAN_MOTION":15.01258493,"ECCENTRICITY":9.55e-5,"INCLINATION":97.6037,"RA_OF_ASC_NODE":310.1444,"ARG_OF_PERICENTER":143.0445,"MEAN_ANOMALY":217.0846,"EPHEMERIS_TYPE":0,"CLASSIFICATION_TYPE":"U","NORAD_CAT_ID":53656,"ELEMENT_SET_NO":999,"REV_AT_EPOCH":19322,"BSTAR":8.3134e-6,"MEAN_MOTION_DOT":4.9e-7,"MEAN_MOTION_DDOT":0},{"OBJECT_NAME":"DELTA 1 DEB","OBJECT_ID":"1977-065BM","EPOCH":"2026-03-09T08:53:34.800288","MEAN_MOTION":14.77293363,"ECCENTRICITY":0.02802368,"INCLINATION":28.9467,"RA_OF_ASC_NODE":72.3418,"ARG_OF_PERICENTER":336.7461,"MEAN_ANOMALY":22.0666,"EPHEMERIS_TYPE":0,"CLASSIFICATION_TYPE":"U","NORAD_CAT_ID":10234,"ELEMENT_SET_NO":999,"REV_AT_EPOCH":46616,"BSTAR":0.0015812082,"MEAN_MOTION_DOT":0.00022515,"MEAN_MOTION_DDOT":0}]
